CUTE-1 (CO-55)          
1 27844U 03031E   22236.02327483  .00000120  00000+0  73326-4 0  9993
2 27844  98.6800 242.6922 0008621 266.3842  93.6350 14.22482869993512
CUBESAT XI-IV (CO-57)   
1 27848U 03031J   22236.00738880  .00000095  00000+0  62727-4 0  9996
2 27848  98.6845 243.1819 0008549 282.6408  77.3813 14.22035959993319
CUBESAT XI-V            
1 28895U 05043F   22235.34399486  .00000401  00000+0  84672-4 0  9999
2 28895  98.1148   5.7254 0015341 292.3913  67.5664 14.64435302897203
CUTE-1.7+APD II (CO-65) 
1 32785U 08021C   22236.13739328  .00001014  00000+0  11120-3 0  9990
2 32785  97.6630 204.8694 0013047  16.9811 343.1841 14.89780708776637
AAUSAT-II               
1 32788U 08021F   22235.84903452  .00002211  00000+0  19227-3 0  9997
2 32788  97.5392 218.8126 0008755 252.9594 107.0670 14.97936094778526
DELFI-C3 (DO-64)        
1 32789U 08021G   22236.07474223  .00005844  00000+0  31505-3 0  9991
2 32789  97.3372 259.9784 0012102  91.8642 268.3977 15.15087521782264
SEEDS II (CO-66)        
1 32791U 08021J   22236.14245847  .00001651  00000+0  16412-3 0  9992
2 32791  97.6164 210.2966 0011689 331.9112  28.1476 14.92953975777371
SWISSCUBE               
1 35932U 09051B   22236.09373067  .00000274  00000+0  71985-4 0  9993
2 35932  98.5612  93.8982 0007042 190.9342 169.1703 14.56932816685983
BEESAT-1                
1 35933U 09051C   22236.18561250  .00000231  00000+0  62235-4 0  9998
2 35933  98.5550  95.5750 0005035 201.3615 158.7373 14.56940530686112
ITUPSAT1                
1 35935U 09051E   22235.83225887  .00000217  00000+0  60394-4 0  9992
2 35935  98.5652  95.2503 0007243 209.6888 150.3898 14.56043839685683
TISAT 1                 
1 36799U 10035E   22236.14176136  .00001400  00000+0  14002-3 0  9991
2 36799  98.1762  89.2433 0010603 229.7026 130.3267 14.93142583658063
M-CUBED & EXP-1 PRIME   
1 37855U 11061F   22235.96412872  .00006442  00000+0  27984-3 0  9998
2 37855 101.7173  30.8534 0150902 219.9701 139.0329 15.13288989591915
AEROCUBE 4.5A           
1 38767U 12048K   22236.14575328  .00001686  00000+0  12712-3 0  9992
2 38767  64.6635 258.2018 0172654 244.1682 114.1537 14.95254689160902
AEROCUBE 4.5B           
1 38768U 12048L   22235.54350937  .00001906  00000+0  12934-3 0  9994
2 38768  64.6642 213.0882 0158865 239.7543 118.7766 15.00169112161215
STRAND-1                
1 39090U 13009E   22236.12871431  .00000079  00000+0  42481-4 0  9994
2 39090  98.4023  72.4911 0010262  72.1151 288.1153 14.35316527497129
BRITE-AUSTRIA           
1 39091U 13009F   22235.41731181  .00000059  00000+0  35354-4 0  9992
2 39091  98.4039  70.9765 0011699  79.9034 280.3471 14.35292750497035
SOMP                    
1 39134U 13015E   22236.18142481  .00007099  00000+0  24586-3 0  9996
2 39134  64.8596 199.3464 0035513 269.7412  89.9651 15.30045388517596
BEESAT-3                
1 39135U 13015F   22235.43832004  .00004359  00000+0  17890-3 0  9997
2 39135  64.8637 239.5023 0039454 275.1451  84.5177 15.24944721516329
BEESAT-2                
1 39136U 13015G   22235.39946879  .00004299  00000+0  18473-3 0  9990
2 39136  64.8724 248.1928 0021040 296.4048  63.4921 15.23892717516113
NEE-01 PEGASO           
1 39151U 13018B   22236.00673113  .00000551  00000+0  77824-4 0  9990
2 39151  97.9949 341.4561 0017554  40.2334 320.0173 14.81071240503686
ESTCUBE 1               
1 39161U 13021C   22236.14845594  .00000728  00000+0  12083-3 0  9995
2 39161  97.9059 311.6218 0008706 197.4604 162.6298 14.73055976499435
POPACS 1                
1 39268U 13055D   22235.54390665  .00014375  00000+0  35961-3 0  9990
2 39268  80.9980 167.2570 0563737 357.8209   2.0528 14.52428852463031
POPACS 2                
1 39269U 13055E   22235.94291201  .00004299  00000+0  11584-3 0  9990
2 39269  81.0092 225.6488 0644409 148.9403 215.1618 14.33719052461079
POPACS 3                
1 39270U 13055F   22236.05189380  .00002435  00000+0  74191-4 0  9993
2 39270  81.0122 259.6143 0685743 245.0892 107.7546 14.22474064458944
ZACUBE-1 (TSHEPISOSAT)  
1 39417U 13066B   22235.45996603  .00000601  00000+0  79183-4 0  9994
2 39417  97.6419 203.9595 0057386 183.3020 176.7824 14.82524593473058
WNISAT-1                
1 39423U 13066H   22236.10105357  .00000361  00000+0  81109-4 0  9996
2 39423  97.7441 112.5664 0173078 286.7552  71.4693 14.53548765464272
TRITON-1                
1 39427U 13066M   22236.03958298  .00000909  00000+0  14832-3 0  9998
2 39427  97.8134 168.9026 0112904  49.1640 311.9288 14.69100452468891
DELFI-N3XT              
1 39428U 13066N   22235.53875825  .00001125  00000+0  17877-3 0  9990
2 39428  97.8137 167.0222 0118527  63.6483 297.6837 14.69390981468388
GOMX-1                  
1 39430U 13066Q   22236.22279122  .00000623  00000+0  11950-3 0  9996
2 39430  97.8036 139.5410 0148487 190.6850 169.1183 14.60314234466180
CUBEBUG-2 (LO-74)       
1 39440U 13066AA  22235.45174058  .00000656  00000+0  95540-4 0  9997
2 39440  97.7305 190.2151 0076854 274.3397  84.9036 14.77193218471372
NEE-02 KRYSAOR          
1 39441U 13066AB  22235.37696915  .00000560  00000+0  85014-4 0  9999
2 39441  97.7416 187.2899 0078912 288.8576  70.4089 14.75876849469907
FUNCUBE-1 (AO-73)       
1 39444U 13066AE  22236.16890284  .00000845  00000+0  10589-3 0  9995
2 39444  97.6300 207.0526 0056622 168.7195 191.5304 14.83642030472154
UWE-3                   
1 39446U 13066AG  22235.42534163  .00000576  00000+0  80702-4 0  9992
2 39446  97.6908 196.6208 0067116 230.1305 129.3993 14.79749501470952
AEROCUBE 5A             
1 39465U 13072D   22235.98857958  .00036998  00000+0  19680-2 0  9993
2 39465 120.4826 205.3011 0189231 352.6967   7.1360 15.00896771159743
AEROCUBE 5B             
1 39466U 13072E   22236.12424346  .00074108  00000+0  20848-2 0  9995
2 39466 120.4560 301.3559 0119847  13.0146 347.3985 15.28985738161035
BRITE-CA1 (TORONTO)     
1 40020U 14033L   22236.00771257  .00000195  00000+0  40999-4 0  9990
2 40020  97.7864  31.5586 0087808  48.7057 312.1666 14.67111358437678
DUCHIFAT-1              
1 40021U 14033M   22235.42552291  .00001573  00000+0  15614-3 0  9997
2 40021  98.0158 186.8722 0012465 171.5298 188.6133 14.93211107444691
NANOSATC-BR1            
1 40024U 14033Q   22236.08708675  .00001199  00000+0  12394-3 0  9998
2 40024  97.9882 180.5549 0011723 176.5866 183.5434 14.92004531444582
QB50P1                  
1 40025U 14033R   22235.38451881  .00001247  00000+0  13275-3 0  9998
2 40025  97.9614 173.3217 0011683 189.5959 170.5038 14.90732425443730
QB50P2                  
1 40032U 14033Y   22235.36900651  .00001130  00000+0  12257-3 0  9998
2 40032  97.9378 168.4316 0011174 187.0963 173.0098 14.90141582443588
PERSEUS-M2              
1 40037U 14033AD  22236.06141106  .00000353  00000+0  45342-4 0  9991
2 40037  97.8937 157.9009 0013355 211.2031 148.8393 14.87195844443678
PERSEUS-M1              
1 40039U 14033AF  22235.53560046  .00000310  00000+0  40899-4 0  9997
2 40039  97.8834 155.0163 0013211 211.9880 148.0535 14.86801688442977
POLYITAN-1              
1 40042U 14033AJ  22236.13511103  .00001220  00000+0  12979-3 0  9996
2 40042  97.9722 175.3632 0014040 179.9229 180.1993 14.90801871444241
TIGRISAT                
1 40043U 14033AK  22235.45221722  .00000375  00000+0  61556-4 0  9992
2 40043  97.6572  61.1029 0057854 300.2062  59.3426 14.75112716439808
AEROCUBE 6A             
1 40045U 14033AM  22236.10417160  .00000413  00000+0  65054-4 0  9990
2 40045  97.6647  70.7013 0055280 285.3996  74.1111 14.76506386440003
AEROCUBE 6B             
1 40046U 14033AN  22235.79337034  .00000846  00000+0  12451-3 0  9998
2 40046  97.6563  68.8366 0054217 284.3805  75.1391 14.76916417439725
UKUBE-1                 
1 40074U 14037F   22236.11377845  .00001398  00000+0  16848-3 0  9991
2 40074  98.3735 120.2983 0005503  74.6030 285.5770 14.85594630440119
BRITE-PL2 (HEWELIUSZ)   
1 40119U 14049B   22236.18823880  .00000425  00000+0  55844-4 0  9996
2 40119  97.8847 331.1259 0017713  25.1461 335.0612 14.85239959434154
FIREBIRD 4              
1 40378U 15003C   22235.46068568  .00006988  00000+0  20136-3 0  9993
2 40378  99.0913 115.6121 0097339 156.7703 203.7978 15.31524838418685
GRIFEX                  
1 40379U 15003D   22236.15584456  .00004445  00000+0  15618-3 0  9995
2 40379  99.1039 101.6171 0112759 199.4000 160.2924 15.24245431417941
CP10 (EXOCUBE)          
1 40380U 15003E   22235.82130536  .00003668  00000+0  14181-3 0  9996
2 40380  99.1144  93.6962 0120905 225.9197 133.2032 15.20582719417390
TIANWANG 1A (TW-1A)     
1 40928U 15051D   22236.24684208  .00038674  00000+0  39324-3 0  9995
2 40928  97.0352 258.5349 0009314 127.7920 299.6885 15.65023026388828
EXACTVIEW 9             
1 40936U 15052G   22236.02880072 -.00000232  00000+0 -12005-3 0  9996
2 40936   6.0122  51.4012 0010049  16.8551 342.9671 14.77241405373277
AEROCUBE 5C             
1 40965U 15058B   22236.15128293  .00000358  00000+0  58490-4 0  9994
2 40965  64.7754 245.9006 0184236 178.3247 181.8518 14.75802350158956
AEROCUBE 7              
1 40966U 15058C   22236.12353523  .00000481  00000+0  71382-4 0  9990
2 40966  64.7755 242.9984 0182135 177.9825 182.2058 14.76398162158971
ATHENOXAT 1             
1 41168U 15077C   22235.48015681  .00010360  00000+0  40232-3 0  9990
2 41168  14.9862 313.0676 0009252 102.6950   3.2744 15.22362892370537
GALASSIA                
1 41170U 15077E   22235.81245772  .00005299  00000+0  19618-3 0  9995
2 41170  14.9886 302.0277 0010651 135.7766 224.3409 15.21413994370496
VELOX-II                
1 41171U 15077F   22235.75179333  .00003668  00000+0  14724-3 0  9999
2 41171  14.9925  19.3306 0007704 327.9230  32.0622 15.16548170369845
HORYU-4                 
1 41340U 16012D   22236.22273354  .00001344  00000+0  89410-4 0  9992
2 41340  31.0042 286.2170 0013234 155.1959 204.9316 15.03639306357936
